{
    "links": {
        "self": "http://www.neowsapp.com/rest/v1/neo/3843209?api_key=iIulBulltgU6a56xZRHN4H3l9WmuAYTsLGpBGhQ2"
    },
    "id": "3843209",
    "neo_reference_id": "3843209",
    "name": "(2019 NX4)",
    "designation": "2019 NX4",
    "nasa_jpl_url": "http://ssd.jpl.nasa.gov/sbdb.cgi?sstr=3843209",
    "absolute_magnitude_h": 21.1,
    "estimated_diameter": {
        "kilometers": {
            "estimated_diameter_min": 0.160160338,
            "estimated_diameter_max": 0.358129403
        },
        "meters": {
            "estimated_diameter_min": 160.1603379786,
            "estimated_diameter_max": 358.1294030194
        },
        "miles": {
            "estimated_diameter_min": 0.0995189894,
            "estimated_diameter_max": 0.2225312253
        },
        "feet": {
            "estimated_diameter_min": 525.4604432536,
            "estimated_diameter_max": 1174.9652706022
        }
    },
    "is_potentially_hazardous_asteroid": false,
    "close_approach_data": [
        {
            "close_approach_date": "2019-07-18",
            "close_approach_date_full": "2019-Jul-18 18:57",
            "epoch_date_close_approach": 1563476220000,
            "relative_velocity": {
                "kilometers_per_second": "14.8029712641",
                "kilometers_per_hour": "53290.6965506671",
                "miles_per_hour": "33112.7664206076"
            },
            "miss_distance": {
                "astronomical": "0.4792693445",
                "lunar": "186.4357750105",
                "kilometers": "71697673.093496215",
                "miles": "44550868.209089167"
            },
            "orbiting_body": "Earth"
        },
        {
            "close_approach_date": "2026-07-16",
            "close_approach_date_full": "2026-Jul-16 19:34",
            "epoch_date_close_approach": 1784230440000,
            "relative_velocity": {
                "kilometers_per_second": "18.1084940035",
                "kilometers_per_hour": "65190.578412438",
                "miles_per_hour": "40506.8902363285"
            },
            "miss_distance": {
                "astronomical": "0.3130822358",
                "lunar": "121.7889897262",
                "kilometers": "46836435.610517746",
                "miles": "29102811.5730710548"
            },
            "orbiting_body": "Earth"
        }
    ],
    "orbital_data": {
        "orbit_id": "1",
        "orbit_determination_date": "2019-07-09 06:13:54",
        "first_observation_date": "2019-06-22",
        "last_observation_date": "2019-07-09",
        "data_arc_in_days": 17,
        "observations_used": 19,
        "orbit_uncertainty": "7",
        "minimum_orbit_intersection": ".188387",
        "jupiter_tisserand_invariant": "3.717",
        "epoch_osculation": "2459000.5",
        "eccentricity": ".7058262165648658",
        "semi_major_axis": "1.754004844166189",
        "inclination": "24.14229049593794",
        "ascending_node_longitude": "263.2689815452505",
        "orbital_period": "848.4858606790987",
        "perihelion_distance": ".5159822411719207",
        "perihelion_argument": "129.5549454722323",
        "aphelion_distance": "2.992027447160456",
        "perihelion_time": "2458753.614132119468",
        "mean_anomaly": "104.7500218399111",
        "mean_motion": ".4242852081375504",
        "equinox": "J2000",
        "orbit_class": {
            "orbit_class_type": "APO",
            "orbit_class_description": "Near-Earth asteroid orbits which cross the Earth’s orbit similar to that of 1862 Apollo",
            "orbit_class_range": "a (semi-major axis) > 1.0 AU; q (perihelion) < 1.017 AU"
        }
    },
    "is_sentry_object": false
}